[
  {
    "OBJECT_NAME": "SENTINEL-6",
    "OBJECT_ID": "2020-086A",
    "EPOCH": "2025-06-21T16:29:13.828704",
    "MEAN_MOTION": 12.8092946,
    "ECCENTRICITY": 0.0008104,
    "INCLINATION": 66.039,
    "RA_OF_ASC_NODE": 163.8174,
    "ARG_OF_PERICENTER": 270.1156,
    "MEAN_ANOMALY": 89.893,
    "EPHEMERIS_TYPE": 0,
    "CLASSIFICATION_TYPE": "U",
    "NORAD_CAT_ID": 46984,
    "ELEMENT_SET_NO": 999,
    "REV_AT_EPOCH": 21427,
    "BSTAR": 0.00021814,
    "MEAN_MOTION_DOT": -1.1e-07,
    "MEAN_MOTION_DDOT": 0
  },
  {
    "OBJECT_NAME": "GAOFEN-12 02",
    "OBJECT_ID": "2021-026A",
    "EPOCH": "2025-06-21T20:18:00.801504",
    "MEAN_MOTION": 14.80419118,
    "ECCENTRICITY": 0.0001543,
    "INCLINATION": 97.9736,
    "RA_OF_ASC_NODE": 167.7969,
    "ARG_OF_PERICENTER": 355.0716,
    "MEAN_ANOMALY": 5.048,
    "EPHEMERIS_TYPE": 0,
    "CLASSIFICATION_TYPE": "U",
    "NORAD_CAT_ID": 48079,
    "ELEMENT_SET_NO": 999,
    "REV_AT_EPOCH": 22844,
    "BSTAR": 4.7404e-05,
    "MEAN_MOTION_DOT": 3.1e-06,
    "MEAN_MOTION_DDOT": 0
  },
  {
    "OBJECT_NAME": "PLEIADES NEO 3",
    "OBJECT_ID": "2021-034A",
    "EPOCH": "2025-06-21T19:58:37.055712",
    "MEAN_MOTION": 14.81671202,
    "ECCENTRICITY": 0.000167,
    "INCLINATION": 97.8941,
    "RA_OF_ASC_NODE": 247.7685,
    "ARG_OF_PERICENTER": 93.2773,
    "MEAN_ANOMALY": 266.8631,
    "EPHEMERIS_TYPE": 0,
    "CLASSIFICATION_TYPE": "U",
    "NORAD_CAT_ID": 48268,
    "ELEMENT_SET_NO": 999,
    "REV_AT_EPOCH": 22429,
    "BSTAR": 9.4871e-05,
    "MEAN_MOTION_DOT": 6.95e-06,
    "MEAN_MOTION_DDOT": 0
  },
  {
    "OBJECT_NAME": "PLEIADES NEO 4",
    "OBJECT_ID": "2021-073E",
    "EPOCH": "2025-06-21T19:09:58.294368",
    "MEAN_MOTION": 14.8167742,
    "ECCENTRICITY": 0.0001438,
    "INCLINATION": 97.8939,
    "RA_OF_ASC_NODE": 247.7323,
    "ARG_OF_PERICENTER": 89.3409,
    "MEAN_ANOMALY": 270.7969,
    "EPHEMERIS_TYPE": 0,
    "CLASSIFICATION_TYPE": "U",
    "NORAD_CAT_ID": 49070,
    "ELEMENT_SET_NO": 999,
    "REV_AT_EPOCH": 20800,
    "BSTAR": 0.00010558,
    "MEAN_MOTION_DOT": 7.79e-06,
    "MEAN_MOTION_DDOT": 0
  },
  {
    "OBJECT_NAME": "LANDSAT 9",
    "OBJECT_ID": "2021-088A",
    "EPOCH": "2025-06-21T19:39:25.207200",
    "MEAN_MOTION": 14.57101927,
    "ECCENTRICITY": 0.0001504,
    "INCLINATION": 98.2273,
    "RA_OF_ASC_NODE": 243.2364,
    "ARG_OF_PERICENTER": 97.3996,
    "MEAN_ANOMALY": 262.7373,
    "EPHEMERIS_TYPE": 0,
    "CLASSIFICATION_TYPE": "U",
    "NORAD_CAT_ID": 49260,
    "ELEMENT_SET_NO": 999,
    "REV_AT_EPOCH": 19851,
    "BSTAR": 6.8289e-05,
    "MEAN_MOTION_DOT": 2.62e-06,
    "MEAN_MOTION_DDOT": 0
  },
  {
    "OBJECT_NAME": "CSG-2",
    "OBJECT_ID": "2022-008A",
    "EPOCH": "2025-06-21T18:45:17.333568",
    "MEAN_MOTION": 14.8216334,
    "ECCENTRICITY": 0.0001478,
    "INCLINATION": 97.8877,
    "RA_OF_ASC_NODE": 356.6107,
    "ARG_OF_PERICENTER": 89.2258,
    "MEAN_ANOMALY": 270.9125,
    "EPHEMERIS_TYPE": 0,
    "CLASSIFICATION_TYPE": "U",
    "NORAD_CAT_ID": 51444,
    "ELEMENT_SET_NO": 999,
    "REV_AT_EPOCH": 18320,
    "BSTAR": 3.8604e-05,
    "MEAN_MOTION_DOT": 2.55e-06,
    "MEAN_MOTION_DDOT": 0
  },
  {
    "OBJECT_NAME": "GAOFEN-12 03",
    "OBJECT_ID": "2022-069A",
    "EPOCH": "2025-06-21T20:04:57.530208",
    "MEAN_MOTION": 14.80686561,
    "ECCENTRICITY": 0.0001353,
    "INCLINATION": 97.8703,
    "RA_OF_ASC_NODE": 63.8679,
    "ARG_OF_PERICENTER": 98.3365,
    "MEAN_ANOMALY": 261.8001,
    "EPHEMERIS_TYPE": 0,
    "CLASSIFICATION_TYPE": "U",
    "NORAD_CAT_ID": 52912,
    "ELEMENT_SET_NO": 999,
    "REV_AT_EPOCH": 16131,
    "BSTAR": 0.00012647,
    "MEAN_MOTION_DOT": 9.21e-06,
    "MEAN_MOTION_DDOT": 0
  },
  {
    "OBJECT_NAME": "SWOT",
    "OBJECT_ID": "2022-173A",
    "EPOCH": "2025-06-21T13:45:12.784032",
    "MEAN_MOTION": 14.00168077,
    "ECCENTRICITY": 1.19e-05,
    "INCLINATION": 77.6089,
    "RA_OF_ASC_NODE": 162.1027,
    "ARG_OF_PERICENTER": 85.601,
    "MEAN_ANOMALY": 274.5155,
    "EPHEMERIS_TYPE": 0,
    "CLASSIFICATION_TYPE": "U",
    "NORAD_CAT_ID": 54754,
    "ELEMENT_SET_NO": 999,
    "REV_AT_EPOCH": 12868,
    "BSTAR": 7.972e-05,
    "MEAN_MOTION_DOT": 1.15e-06,
    "MEAN_MOTION_DDOT": 0
  },
  {
    "OBJECT_NAME": "GAOFEN-12 04",
    "OBJECT_ID": "2023-123A",
    "EPOCH": "2025-06-21T20:50:49.475616",
    "MEAN_MOTION": 14.8067193,
    "ECCENTRICITY": 0.000267,
    "INCLINATION": 97.9108,
    "RA_OF_ASC_NODE": 91.2241,
    "ARG_OF_PERICENTER": 86.2879,
    "MEAN_ANOMALY": 273.8638,
    "EPHEMERIS_TYPE": 0,
    "CLASSIFICATION_TYPE": "U",
    "NORAD_CAT_ID": 57654,
    "ELEMENT_SET_NO": 999,
    "REV_AT_EPOCH": 9933,
    "BSTAR": 0.00011684,
    "MEAN_MOTION_DOT": 8.46e-06,
    "MEAN_MOTION_DDOT": 0
  },
  {
    "OBJECT_NAME": "PARS 1",
    "OBJECT_ID": "2024-039Q",
    "EPOCH": "2025-06-21T21:08:37.891104",
    "MEAN_MOTION": 15.36722744,
    "ECCENTRICITY": 0.0010587,
    "INCLINATION": 97.4394,
    "RA_OF_ASC_NODE": 141.0479,
    "ARG_OF_PERICENTER": 343.865,
    "MEAN_ANOMALY": 16.2256,
    "EPHEMERIS_TYPE": 0,
    "CLASSIFICATION_TYPE": "U",
    "NORAD_CAT_ID": 59065,
    "ELEMENT_SET_NO": 999,
    "REV_AT_EPOCH": 7315,
    "BSTAR": 0.00018248,
    "MEAN_MOTION_DOT": 6.473e-05,
    "MEAN_MOTION_DDOT": 0
  },
  {
    "OBJECT_NAME": "RESURS-P 4",
    "OBJECT_ID": "2024-061A",
    "EPOCH": "2025-06-21T20:07:16.910688",
    "MEAN_MOTION": 15.321649,
    "ECCENTRICITY": 0.0001703,
    "INCLINATION": 97.231,
    "RA_OF_ASC_NODE": 122.8999,
    "ARG_OF_PERICENTER": 135.5584,
    "MEAN_ANOMALY": 224.5795,
    "EPHEMERIS_TYPE": 0,
    "CLASSIFICATION_TYPE": "U",
    "NORAD_CAT_ID": 59371,
    "ELEMENT_SET_NO": 999,
    "REV_AT_EPOCH": 6857,
    "BSTAR": 8.5009e-05,
    "MEAN_MOTION_DOT": 2.564e-05,
    "MEAN_MOTION_DDOT": 0
  },
  {
    "OBJECT_NAME": "LEGION 1",
    "OBJECT_ID": "2024-081A",
    "EPOCH": "2025-06-21T12:24:06.334272",
    "MEAN_MOTION": 15.16837329,
    "ECCENTRICITY": 0.0004213,
    "INCLINATION": 97.5366,
    "RA_OF_ASC_NODE": 248.3416,
    "ARG_OF_PERICENTER": 28.8531,
    "MEAN_ANOMALY": 331.2934,
    "EPHEMERIS_TYPE": 0,
    "CLASSIFICATION_TYPE": "U",
    "NORAD_CAT_ID": 59625,
    "ELEMENT_SET_NO": 999,
    "REV_AT_EPOCH": 6286,
    "BSTAR": 0.00015115,
    "MEAN_MOTION_DOT": 2.905e-05,
    "MEAN_MOTION_DDOT": 0
  },
  {
    "OBJECT_NAME": "LEGION 2",
    "OBJECT_ID": "2024-081B",
    "EPOCH": "2025-06-21T13:12:53.264736",
    "MEAN_MOTION": 15.16832929,
    "ECCENTRICITY": 0.0003403,
    "INCLINATION": 97.5368,
    "RA_OF_ASC_NODE": 248.4535,
    "ARG_OF_PERICENTER": 70.7318,
    "MEAN_ANOMALY": 289.4283,
    "EPHEMERIS_TYPE": 0,
    "CLASSIFICATION_TYPE": "U",
    "NORAD_CAT_ID": 59626,
    "ELEMENT_SET_NO": 999,
    "REV_AT_EPOCH": 6287,
    "BSTAR": 0.00016811,
    "MEAN_MOTION_DOT": 3.238e-05,
    "MEAN_MOTION_DDOT": 0
  },
  {
    "OBJECT_NAME": "ALOS-4 (DAICHI-4)",
    "OBJECT_ID": "2024-123A",
    "EPOCH": "2025-06-21T17:49:58.767456",
    "MEAN_MOTION": 14.79477618,
    "ECCENTRICITY": 0.0001587,
    "INCLINATION": 97.9216,
    "RA_OF_ASC_NODE": 270.084,
    "ARG_OF_PERICENTER": 95.7716,
    "MEAN_ANOMALY": 264.3677,
    "EPHEMERIS_TYPE": 0,
    "CLASSIFICATION_TYPE": "U",
    "NORAD_CAT_ID": 60182,
    "ELEMENT_SET_NO": 999,
    "REV_AT_EPOCH": 5258,
    "BSTAR": 0.00016542,
    "MEAN_MOTION_DOT": 1.184e-05,
    "MEAN_MOTION_DDOT": 0
  }
]