SENTINEL-6              
1 46984U 20086A   25172.68696561 -.00000011  00000+0  21814-3 0  9992
2 46984  66.0390 163.8174 0008104 270.1156  89.8930 12.80929460214276
GAOFEN-12 02            
1 48079U 21026A   25172.84584261  .00000310  00000+0  47404-4 0  9990
2 48079  97.9736 167.7969 0001543 355.0716   5.0480 14.80419118228440
PLEIADES NEO 3          
1 48268U 21034A   25172.83237333  .00000695  00000+0  94871-4 0  9999
2 48268  97.8941 247.7685 0001670  93.2773 266.8631 14.81671202224295
PLEIADES NEO 4          
1 49070U 21073E   25172.79859137  .00000779  00000+0  10558-3 0  9993
2 49070  97.8939 247.7323 0001438  89.3409 270.7969 14.81677420208004
LANDSAT 9               
1 49260U 21088A   25172.81904175  .00000262  00000+0  68289-4 0  9998
2 49260  98.2273 243.2364 0001504  97.3996 262.7373 14.57101927198512
CSG-2                   
1 51444U 22008A   25172.78145062  .00000255  00000+0  38604-4 0  9996
2 51444  97.8877 356.6107 0001478  89.2258 270.9125 14.82163340183200
GAOFEN-12 03            
1 52912U 22069A   25172.83677697  .00000921  00000+0  12647-3 0  9992
2 52912  97.8703  63.8679 0001353  98.3365 261.8001 14.80686561161315
SWOT                    
1 54754U 22173A   25172.57306463  .00000115  00000+0  79720-4 0  9996
2 54754  77.6089 162.1027 0000119  85.6010 274.5155 14.00168077128682
GAOFEN-12 04            
1 57654U 23123A   25172.86862819  .00000846  00000+0  11684-3 0  9993
2 57654  97.9108  91.2241 0002670  86.2879 273.8638 14.80671930 99337
PARS 1                  
1 59065U 24039Q   25172.88099411  .00006473  00000+0  18248-3 0  9995
2 59065  97.4394 141.0479 0010587 343.8650  16.2256 15.36722744 73158
RESURS-P 4              
1 59371U 24061A   25172.83839017  .00002564  00000+0  85009-4 0  9996
2 59371  97.2310 122.8999 0001703 135.5584 224.5795 15.32164900 68572
LEGION 1                
1 59625U 24081A   25172.51673998  .00002905  00000+0  15115-3 0  9998
2 59625  97.5366 248.3416 0004213  28.8531 331.2934 15.16837329 62862
LEGION 2                
1 59626U 24081B   25172.55061649  .00003238  00000+0  16811-3 0  9991
2 59626  97.5368 248.4535 0003403  70.7318 289.4283 15.16832929 62870
ALOS-4 (DAICHI-4)       
1 60182U 24123A   25172.74304129  .00001184  00000+0  16542-3 0  9990
2 60182  97.9216 270.0840 0001587  95.7716 264.3677 14.79477618 52589
